{
  "norad_id": 54176,
  "name": "STARLINK-5154",
  "history": [
    {
      "epoch": "2026-03-28T19:02:11.396544Z",
      "apogee_km": 540.7351299235615,
      "perigee_km": 538.7265961682051,
      "latitude_deg": -4.606500175008018e-06,
      "longitude_deg": 166.45947385489845,
      "height_km": 540.7592939079963,
      "semi_major_axis_km": 6917.8678630458835,
      "eccentricity": 0.00014517,
      "inclination_deg": 53.2173,
      "raan_deg": 278.2155,
      "arg_perigee_deg": 97.6014,
      "mean_anomaly_deg": 262.5143,
      "mean_motion_rev_day": 15.08844098
    }
  ]
}