{"fetched_at":"2026-03-29T16:36:15Z","count":15609,"tles":[{"name":"STARLINK-5154","line1":"1 54176U 22141V   26087.79318746  .00000676  00000+0  60546-4 0  9994","line2":"2 54176  53.2173 278.2155 0001451  97.6014 262.5143 15.08844098188742","category":"Starlink"}]}